{
  "type": "FeatureCollection",
  "name": "spatial-query-demo",
  "crs": {
    "type": "name",
    "properties": {
      "name": "EPSG:4326"
    }
  },
  "features": [
    {
      "type": "Feature",
      "id": "poi-hospital-01",
      "properties": {
        "name": "中心医院",
        "category": "医院",
        "district": "金水区",
        "status": "已启用",
        "priority": 5,
        "capacity": 1200
      },
      "geometry": {
        "type": "Point",
        "coordinates": [
          113.6568,
          34.7572
        ]
      }
    },
    {
      "type": "Feature",
      "id": "poi-hospital-02",
      "properties": {
        "name": "西城医院",
        "category": "医院",
        "district": "中原区",
        "status": "已启用",
        "priority": 4,
        "capacity": 680
      },
      "geometry": {
        "type": "Point",
        "coordinates": [
          113.6105,
          34.7458
        ]
      }
    },
    {
      "type": "Feature",
      "id": "poi-school-01",
      "properties": {
        "name": "东区实验学校",
        "category": "学校",
        "district": "金水区",
        "status": "已启用",
        "priority": 3,
        "capacity": 2100
      },
      "geometry": {
        "type": "Point",
        "coordinates": [
          113.6819,
          34.7734
        ]
      }
    },
    {
      "type": "Feature",
      "id": "poi-school-02",
      "properties": {
        "name": "西郊中学",
        "category": "学校",
        "district": "中原区",
        "status": "规划中",
        "priority": 2,
        "capacity": 1500
      },
      "geometry": {
        "type": "Point",
        "coordinates": [
          113.5882,
          34.7198
        ]
      }
    },
    {
      "type": "Feature",
      "id": "poi-park-01",
      "properties": {
        "name": "北郊生态公园",
        "category": "公园",
        "district": "金水区",
        "status": "已启用",
        "priority": 2,
        "capacity": 8000
      },
      "geometry": {
        "type": "Point",
        "coordinates": [
          113.6261,
          34.7805
        ]
      }
    },
    {
      "type": "Feature",
      "id": "poi-park-02",
      "properties": {
        "name": "东部湿地公园",
        "category": "公园",
        "district": "郑东新区",
        "status": "已启用",
        "priority": 4,
        "capacity": 12000
      },
      "geometry": {
        "type": "Point",
        "coordinates": [
          113.7056,
          34.7319
        ]
      }
    },
    {
      "type": "Feature",
      "id": "poi-station-01",
      "properties": {
        "name": "人民路枢纽",
        "category": "场站",
        "district": "二七区",
        "status": "已启用",
        "priority": 5,
        "capacity": 35000
      },
      "geometry": {
        "type": "Point",
        "coordinates": [
          113.6426,
          34.7487
        ]
      }
    },
    {
      "type": "Feature",
      "id": "poi-station-02",
      "properties": {
        "name": "东部客运站",
        "category": "场站",
        "district": "郑东新区",
        "status": "已启用",
        "priority": 4,
        "capacity": 22000
      },
      "geometry": {
        "type": "Point",
        "coordinates": [
          113.6934,
          34.7545
        ]
      }
    },
    {
      "type": "Feature",
      "id": "poi-market-01",
      "properties": {
        "name": "建材交易中心",
        "category": "市场",
        "district": "中原区",
        "status": "已启用",
        "priority": 1,
        "capacity": 5000
      },
      "geometry": {
        "type": "Point",
        "coordinates": [
          113.6008,
          34.7725
        ]
      }
    },
    {
      "type": "Feature",
      "id": "poi-market-02",
      "properties": {
        "name": "南郊物流园",
        "category": "市场",
        "district": "管城区",
        "status": "规划中",
        "priority": 3,
        "capacity": 9000
      },
      "geometry": {
        "type": "Point",
        "coordinates": [
          113.6689,
          34.7136
        ]
      }
    },
    {
      "type": "Feature",
      "id": "route-emergency-01",
      "properties": {
        "name": "应急转运通道",
        "category": "路线",
        "district": "主城区",
        "status": "已启用",
        "priority": 5,
        "capacity": 0
      },
      "geometry": {
        "type": "LineString",
        "coordinates": [
          [
            113.589,
            34.724
          ],
          [
            113.613,
            34.738
          ],
          [
            113.642,
            34.749
          ],
          [
            113.671,
            34.759
          ],
          [
            113.705,
            34.733
          ]
        ]
      }
    },
    {
      "type": "Feature",
      "id": "zone-response-01",
      "properties": {
        "name": "东部应急响应区",
        "category": "应急响应区",
        "district": "郑东新区",
        "status": "已启用",
        "priority": 5,
        "capacity": 0
      },
      "geometry": {
        "type": "Polygon",
        "coordinates": [
          [
            [
              113.675,
              34.718
            ],
            [
              113.729,
              34.718
            ],
            [
              113.729,
              34.765
            ],
            [
              113.675,
              34.765
            ],
            [
              113.675,
              34.718
            ]
          ]
        ]
      }
    }
  ]
}
